{
  "type": "FeatureCollection",
  "features": [
    {
      "type": "Feature",
      "properties": {
        "norad_id": 43260,
        "name": "GAOFEN-1 03",
        "group": "resource",
        "lat": -36.006515424493614,
        "lon": -151.68568953782204,
        "alt_km": 648.58900332333,
        "timestamp": "2025-12-02T13:52:16.933335+00:00",
        "meta_object_name": "GAOFEN-1 03",
        "meta_object_id": "2018-031B",
        "meta_epoch": "2025-12-02T08:00:53.212608",
        "meta_mean_motion": 14.76401264,
        "meta_eccentricity": 0.00027058,
        "meta_inclination": 98.0813,
        "meta_ra_of_asc_node": 33.9968,
        "meta_arg_of_pericenter": 2.1589,
        "meta_mean_anomaly": 357.9632,
        "meta_ephemeris_type": 0,
        "meta_classification_type": "U",
        "meta_norad_cat_id": 43260,
        "meta_element_set_no": 999,
        "meta_rev_at_epoch": 41364,
        "meta_bstar": 0.00019940748,
        "meta_mean_motion_dot": 1.334e-05,
        "meta_mean_motion_ddot": 0,
        "tle_line1": "1 43260U 18031B   25336.33394922  .00001334  00000+0  19941-3 0  9999",
        "tle_line2": "2 43260  98.0813  33.9968 0002705   2.1589 357.9632 14.76401264413641"
      },
      "geometry": {
        "type": "Point",
        "coordinates": [
          -151.68568953782204,
          -36.006515424493614
        ]
      }
    },
    {
      "type": "Feature",
      "properties": {
        "norad_id": 43262,
        "name": "GAOFEN-1 04",
        "group": "resource",
        "lat": -14.746076230518248,
        "lon": 36.552276806749454,
        "alt_km": 645.1569873362332,
        "timestamp": "2025-12-02T13:52:16.933345+00:00",
        "meta_object_name": "GAOFEN-1 04",
        "meta_object_id": "2018-031D",
        "meta_epoch": "2025-12-02T07:25:57.036288",
        "meta_mean_motion": 14.76414229,
        "meta_eccentricity": 0.00013903,
        "meta_inclination": 98.0823,
        "meta_ra_of_asc_node": 34.1404,
        "meta_arg_of_pericenter": 63.1279,
        "meta_mean_anomaly": 297.0073,
        "meta_ephemeris_type": 0,
        "meta_classification_type": "U",
        "meta_norad_cat_id": 43262,
        "meta_element_set_no": 999,
        "meta_rev_at_epoch": 41363,
        "meta_bstar": 0.00019976425,
        "meta_mean_motion_dot": 1.337e-05,
        "meta_mean_motion_ddot": 0,
        "tle_line1": "1 43262U 18031D   25336.30968792  .00001337  00000+0  19976-3 0  9991",
        "tle_line2": "2 43262  98.0823  34.1404 0001390  63.1279 297.0073 14.76414229413631"
      },
      "geometry": {
        "type": "Point",
        "coordinates": [
          36.552276806749454,
          -14.746076230518248
        ]
      }
    },
    {
      "type": "Feature",
      "properties": {
        "norad_id": 43437,
        "name": "SENTINEL-3B",
        "group": "resource",
        "lat": 12.871319935412394,
        "lon": -136.10348721042055,
        "alt_km": 803.1671729117725,
        "timestamp": "2025-12-02T13:52:16.933354+00:00",
        "meta_object_name": "SENTINEL-3B",
        "meta_object_id": "2018-039A",
        "meta_epoch": "2025-12-02T04:40:34.740192",
        "meta_mean_motion": 14.2673608,
        "meta_eccentricity": 0.00014659,
        "meta_inclination": 98.6281,
        "meta_ra_of_asc_node": 41.5306,
        "meta_arg_of_pericenter": 112.8551,
        "meta_mean_anomaly": 247.2785,
        "meta_ephemeris_type": 0,
        "meta_classification_type": "U",
        "meta_norad_cat_id": 43437,
        "meta_element_set_no": 999,
        "meta_rev_at_epoch": 39603,
        "meta_bstar": 9.3084713e-05,
        "meta_mean_motion_dot": 1.82e-06,
        "meta_mean_motion_ddot": 0,
        "tle_line1": "1 43437U 18039A   25336.19484653  .00000182  00000+0  93085-4 0  9990",
        "tle_line2": "2 43437  98.6281  41.5306 0001465 112.8551 247.2785 14.26736080396038"
      },
      "geometry": {
        "type": "Point",
        "coordinates": [
          -136.10348721042055,
          12.871319935412394
        ]
      }
    },
    {
      "type": "Feature",
      "properties": {
        "norad_id": 43461,
        "name": "GAOFEN-5 01",
        "group": "resource",
        "lat": 6.1437990096792525,
        "lon": -61.54608383604789,
        "alt_km": 692.8815920716097,
        "timestamp": "2025-12-02T13:52:16.933364+00:00",
        "meta_object_name": "GAOFEN-5 01",
        "meta_object_id": "2018-043A",
        "meta_epoch": "2025-12-01T21:23:57.682176",
        "meta_mean_motion": 14.60389358,
        "meta_eccentricity": 0.00016704,
        "meta_inclination": 98.4311,
        "meta_ra_of_asc_node": 298.6706,
        "meta_arg_of_pericenter": 14.3292,
        "meta_mean_anomaly": 345.7954,
        "meta_ephemeris_type": 0,
        "meta_classification_type": "U",
        "meta_norad_cat_id": 43461,
        "meta_element_set_no": 999,
        "meta_rev_at_epoch": 40289,
        "meta_bstar": 0.00013041428,
        "meta_mean_motion_dot": 5.82e-06,
        "meta_mean_motion_ddot": 0,
        "tle_line1": "1 43461U 18043A   25335.89163984  .00000582  00000+0  13041-3 0  9996",
        "tle_line2": "2 43461  98.4311 298.6706 0001670  14.3292 345.7954 14.60389358402896"
      },
      "geometry": {
        "type": "Point",
        "coordinates": [
          -61.54608383604789,
          6.1437990096792525
        ]
      }
    },
    {
      "type": "Feature",
      "properties": {
        "norad_id": 43484,
        "name": "GAOFEN-6",
        "group": "resource",
        "lat": 46.70040489358339,
        "lon": -130.44532773698072,
        "alt_km": 628.9377083227973,
        "timestamp": "2025-12-02T13:52:16.933374+00:00",
        "meta_object_name": "GAOFEN-6",
        "meta_object_id": "2018-048A",
        "meta_epoch": "2025-12-02T01:53:23.034912",
        "meta_mean_motion": 14.76647441,
        "meta_eccentricity": 0.00130072,
        "meta_inclination": 97.8045,
        "meta_ra_of_asc_node": 40.7031,
        "meta_arg_of_pericenter": 93.3192,
        "meta_mean_anomaly": 266.9506,
        "meta_ephemeris_type": 0,
        "meta_classification_type": "U",
        "meta_norad_cat_id": 43484,
        "meta_element_set_no": 999,
        "meta_rev_at_epoch": 40430,
        "meta_bstar": 0.00015465224,
        "meta_mean_motion_dot": 1.033e-05,
        "meta_mean_motion_ddot": 0,
        "tle_line1": "1 43484U 18048A   25336.07873883  .00001033  00000+0  15465-3 0  9997",
        "tle_line2": "2 43484  97.8045  40.7031 0013007  93.3192 266.9506 14.76647441404300"
      },
      "geometry": {
        "type": "Point",
        "coordinates": [
          -130.44532773698072,
          46.70040489358339
        ]
      }
    },
    {
      "type": "Feature",
      "properties": {
        "norad_id": 43585,
        "name": "GAOFEN-11 01",
        "group": "resource",
        "lat": 6.9087133054167085,
        "lon": -139.52700053402017,
        "alt_km": 425.9096213944058,
        "timestamp": "2025-12-02T13:52:16.933386+00:00",
        "meta_object_name": "GAOFEN-11 01",
        "meta_object_id": "2018-063A",
        "meta_epoch": "2025-12-02T06:55:28.561728",
        "meta_mean_motion": 15.48772809,
        "meta_eccentricity": 0.00050616,
        "meta_inclination": 97.1583,
        "meta_ra_of_asc_node": 39.3135,
        "meta_arg_of_pericenter": 358.0373,
        "meta_mean_anomaly": 2.0858,
        "meta_ephemeris_type": 0,
        "meta_classification_type": "U",
        "meta_norad_cat_id": 43585,
        "meta_element_set_no": 999,
        "meta_rev_at_epoch": 40980,
        "meta_bstar": 0.00031916846,
        "meta_mean_motion_dot": 0.00017065,
        "meta_mean_motion_ddot": 0,
        "tle_line1": "1 43585U 18063A   25336.28852502  .00017065  00000+0  31917-3 0  9996",
        "tle_line2": "2 43585  97.1583  39.3135 0005061 358.0373   2.0858 15.48772809409800"
      },
      "geometry": {
        "type": "Point",
        "coordinates": [
          -139.52700053402017,
          6.9087133054167085
        ]
      }
    },
    {
      "type": "Feature",
      "properties": {
        "norad_id": 43613,
        "name": "ICESAT-2",
        "group": "resource",
        "lat": -49.72679728870477,
        "lon": -119.6356553877023,
        "alt_km": 488.2934309175789,
        "timestamp": "2025-12-02T13:52:16.933396+00:00",
        "meta_object_name": "ICESAT-2",
        "meta_object_id": "2018-070A",
        "meta_epoch": "2025-12-02T06:13:53.391072",
        "meta_mean_motion": 15.28301292,
        "meta_eccentricity": 5.973e-05,
        "meta_inclination": 92.0054,
        "meta_ra_of_asc_node": 237.9082,
        "meta_arg_of_pericenter": 150.4258,
        "meta_mean_anomaly": 209.7025,
        "meta_ephemeris_type": 0,
        "meta_classification_type": "U",
        "meta_norad_cat_id": 43613,
        "meta_element_set_no": 999,
        "meta_rev_at_epoch": 40238,
        "meta_bstar": 0.00057664286,
        "meta_mean_motion_dot": 0.00015901,
        "meta_mean_motion_ddot": 0,
        "tle_line1": "1 43613U 18070A   25336.25964573  .00015901  00000+0  57664-3 0  9999",
        "tle_line2": "2 43613  92.0054 237.9082 0000597 150.4258 209.7025 15.28301292402381"
      },
      "geometry": {
        "type": "Point",
        "coordinates": [
          -119.6356553877023,
          -49.72679728870477
        ]
      }
    }
  ]
}